{
  "norad_id": 48360,
  "name": "STARLINK-2622",
  "history": [
    {
      "epoch": "2026-03-28T19:48:48.320928",
      "apogee_km": 476.23722395370896,
      "perigee_km": 474.0930998393369,
      "latitude_deg": -27.033490088510973,
      "longitude_deg": 175.25368992006406,
      "semi_major_axis_km": 6853.302161896522,
      "eccentricity": 0.00015643,
      "inclination_deg": 53.1586,
      "raan_deg": 269.2648,
      "arg_perigee_deg": 84.7582,
      "mean_anomaly_deg": 275.3597,
      "mean_motion_rev_day": 15.30216715
    }
  ]
}