{"fetched_at":"2026-03-29T16:36:15Z","count":15609,"tles":[{"name":"STARLINK-2622","line1":"1 48360U 21038H   26087.82555927  .00008479  00000+0  29791-3 0  9999","line2":"2 48360  53.1586 269.2648 0001564  84.7582 275.3597 15.30216715270006","category":"Starlink"}]}